NORAD_CAT_ID,OBJECT_NAME,OBJECT_TYPE,EPOCH,MEAN_MOTION,ECCENTRICITY,INCLINATION,RA_OF_ASC_NODE,ARG_OF_PERICENTER,MEAN_ANOMALY,BSTAR,MEAN_MOTION_DOT,MEAN_MOTION_DDOT,TLE_LINE0,TLE_LINE1,TLE_LINE2,SEMIMAJOR_AXIS,PERIOD,APOGEE,PERIGEE,DECAYED
52117.0,STARLINK-3738,PAYLOAD,2022-09-06 14:00:01,15.08824408,0.0001699999999999,53.2184,65.7311,63.5369,8.6332,-0.00077023,-0.0001252,0.0,0 STARLINK-3738,1 52117U 22029AF  22249.58334491 -.00012520  00000-0 -77023-3 0  9991,2 52117  53.2184  65.7311 0001700  63.5369   8.6332 15.08824408  1300,6917.928000000001,95.439,540.969,538.617,0.0
52117.0,STARLINK-3738,PAYLOAD,2022-09-06 22:00:00,15.08792985,0.0001803,53.2184,64.2362,56.7162,27.0285,0.003133,0.00049863,0.0,0 STARLINK-3738,1 52117U 22029AF  22249.91667824  .00049863  00000-0  31330-2 0  9995,2 52117  53.2184  64.2362 0001803  56.7162  27.0285 15.08792985  1305,6918.024,95.441,541.136,538.6419999999998,0.0
52117.0,STARLINK-3738,PAYLOAD,2022-09-07 14:00:01,15.08854987,0.0001751,53.2187,61.2419,62.3199,44.6255,-0.0018936,-0.00030311,0.0,0 STARLINK-3738,1 52117U 22029AF  22250.58334491 -.00030311  00000-0 -18936-2 0  9998,2 52117  53.2187  61.2419 0001751  62.3199  44.6255 15.08854987 27696,6917.835,95.437,540.911,538.488,0.0
52117.0,STARLINK-3738,PAYLOAD,2022-09-07 22:00:00,15.08814548,0.0001826,53.2184,59.7469,55.0078,63.5424,0.0032349,0.00051536,0.0,0 STARLINK-3738,1 52117U 22029AF  22250.91667824  .00051536  00000-0  32349-2 0  9998,2 52117  53.2184  59.7469 0001826  55.0078  63.5424 15.08814548  1305,6917.958000000001,95.439,541.086,538.56,0.0
52117.0,STARLINK-3738,PAYLOAD,2022-09-08 06:00:00,15.08837924,0.0001651,53.2185,58.2488,60.6702,69.4772,0.0013879,0.00021868,0.0,0 STARLINK-3738,1 52117U 22029AF  22251.25001157  .00021868  00000-0  13879-2 0  9999,2 52117  53.2185  58.2488 0001651  60.6702  69.4772 15.08837924 27798,6917.887,95.438,540.894,538.61,0.0
52117.0,STARLINK-3738,PAYLOAD,2022-09-08 14:00:01,15.08876115,0.0001659,53.2187,56.7527,61.4559,80.2849,-0.0041603,-0.00065959,0.0,0 STARLINK-3738,1 52117U 22029AF  22251.58334491 -.00065959  00000-0 -41603-2 0  9992,2 52117  53.2187  56.7527 0001659  61.4559  80.2849 15.08876115  1304,6917.77,95.435,540.783,538.487,0.0
52117.0,STARLINK-3738,PAYLOAD,2022-09-08 22:00:00,15.08814028,0.0001689,53.2183,55.2575,52.5722,100.7873,0.0029401,0.00046781,0.0,0 STARLINK-3738,1 52117U 22029AF  22251.91667824  .00046781  00000-0  29401-2 0  9990,2 52117  53.2183  55.2575 0001689  52.5722 100.7873 15.08814028 27895,6917.96,95.439,540.993,538.656,0.0
52117.0,STARLINK-3738,PAYLOAD,2022-09-09 14:00:01,15.08836644,0.0001496999999999,53.2185,52.2636,58.3582,118.1627,-0.0013335999999999,-0.00021447,0.0,0 STARLINK-3738,1 52117U 22029AF  22252.58334491 -.00021447  00000-0 -13336-2 0  9999,2 52117  53.2185  52.2636 0001497  58.3582 118.1627 15.08836644  1303,6917.891,95.438,540.7909999999998,538.72,0.0
52117.0,STARLINK-3738,PAYLOAD,2022-09-09 22:00:00,15.08807479,0.0001601,53.2181,50.7683,50.9829,137.1236,0.0029785,0.00047392,0.0,0 STARLINK-3738,1 52117U 22029AF  22252.91667824  .00047392  00000-0  29785-2 0  9995,2 52117  53.2181  50.7683 0001601  50.9829 137.1236 15.08807479  1304,6917.98,95.44,540.952,538.737,0.0
52117.0,STARLINK-3738,PAYLOAD,2022-09-10 04:00:00,15.08838006,0.0001473,53.2182,49.6447,56.6856,50.104,-0.00038519,-6.413e-05,0.0,0 STARLINK-3738,1 52117U 22029AF  22253.16667824 -.00006413  00000-0 -38519-3 0  9990,2 52117  53.2182  49.6447 0001473  56.6856  50.1040 15.08838006 28081,6917.886,95.438,540.77,538.732,0.0
52117.0,STARLINK-3738,PAYLOAD,2022-09-10 14:00:01,15.088741199999998,0.0001467,53.2183,47.7748,56.6731,154.6074,-0.0040141,-0.00063667,0.0,0 STARLINK-3738,1 52117U 22029AF  22253.58334491 -.00063667  00000-0 -40141-2 0  9994,2 52117  53.2183  47.7748 0001467  56.6731 154.6074 15.08874120  1300,6917.776,95.435,540.656,538.626,0.0
52117.0,STARLINK-3738,PAYLOAD,2022-09-10 22:00:00,15.08809325,0.0001525,53.218,46.2792,48.1735,174.7101,0.0025987,0.00041278,0.0,0 STARLINK-3738,1 52117U 22029AF  22253.91667824  .00041278  00000-0  25987-2 0  9993,2 52117  53.2180  46.2792 0001525  48.1735 174.7101 15.08809325  1304,6917.974,95.439,540.894,538.784,0.0
52117.0,STARLINK-3738,PAYLOAD,2022-09-11 06:00:00,15.08813576,0.000138,53.2181,44.7811,54.4582,180.0093,0.0027340999999999,0.00043462,0.0,0 STARLINK-3738,1 52117U 22029AF  22254.25001157  .00043462  00000-0  27341-2 0  9995,2 52117  53.2181  44.7811 0001380  54.4582 180.0093 15.08813576 28244,6917.9609999999975,95.439,540.781,538.871,0.0
52117.0,STARLINK-3738,PAYLOAD,2022-09-11 14:00:01,15.08864215,0.0001513,53.2183,43.2858,54.7638,191.289,-0.0018402,-0.00029475,0.0,0 STARLINK-3738,1 52117U 22029AF  22254.58334491 -.00029475  00000-0 -18402-2 0  9999,2 52117  53.2183  43.2858 0001513  54.7638 191.2890 15.08864215  1307,6917.806,95.436,540.7180000000002,538.625,0.0
52117.0,STARLINK-3738,PAYLOAD,2022-09-11 22:00:00,15.08830874,0.0001657,53.2182,41.7902,49.0696,208.597,0.00087959,0.00013735,0.0,0 STARLINK-3738,1 52117U 22029AF  22254.91667824  .00013735  00000-0  87959-3 0  9999,2 52117  53.2182  41.7902 0001657  49.0696 208.5970 15.08830874  1304,6917.908,95.438,540.92,538.627,0.0
52117.0,STARLINK-3738,PAYLOAD,2022-09-12 14:00:01,15.08837818,0.0001763,53.2187,38.7968,56.1277,224.727,-0.0011317,-0.00018253,0.0,0 STARLINK-3738,1 52117U 22029AF  22255.58334491 -.00018253  00000-0 -11317-2 0  9990,2 52117  53.2187  38.7968 0001763  56.1277 224.7270 15.08837818  1307,6917.887,95.438,540.972,538.5319999999998,0.0
52117.0,STARLINK-3738,PAYLOAD,2022-09-12 22:00:00,15.08841743,0.0001808,53.2187,37.3013,50.1752,242.2674,0.00048196,7.391e-05,0.0,0 STARLINK-3738,1 52117U 22029AF  22255.91667824  .00007391  00000-0  48196-3 0  9991,2 52117  53.2187  37.3013 0001808  50.1752 242.2674 15.08841743 28499,6917.875,95.437,540.991,538.489,0.0
52117.0,STARLINK-3738,PAYLOAD,2022-09-13 14:00:01,15.08857807,0.0001720999999999,53.2194,34.3083,51.6046,264.0186,-0.0022583,-0.00036067,0.0,0 STARLINK-3738,1 52117U 22029AF  22256.58334491 -.00036067  00000-0 -22583-2 0  9991,2 52117  53.2194  34.3083 0001721  51.6046 264.0186 15.08857807  1306,6917.826,95.436,540.882,538.5,0.0
52117.0,STARLINK-3738,PAYLOAD,2022-09-13 16:00:00,15.08858091,0.0001810999999999,53.2191,33.9353,49.6565,358.8669,-0.0030008,-0.00047754,0.0,0 STARLINK-3738,1 52117U 22029AF  22256.66667824 -.00047754  00000-0 -30008-2 0  9995,2 52117  53.2191  33.9353 0001811  49.6565 358.8669 15.08858091 28618,6917.825,95.436,540.943,538.437,0.0
52117.0,STARLINK-3738,PAYLOAD,2022-09-13 22:00:00,15.08825067,0.0001761,53.2193,32.8124,45.3885,281.8297,0.0003238,4.867e-05,0.0,0 STARLINK-3738,1 52117U 22029AF  22256.91667824  .00004867  00000-0  32380-3 0  9995,2 52117  53.2193  32.8124 0001761  45.3885 281.8297 15.08825067  1302,6917.926,95.438,541.009,538.573,0.0
52117.0,STARLINK-3738,PAYLOAD,2022-09-14 06:00:00,15.08804668,0.000157,53.2197,31.3146,51.6436,287.1620000000001,0.0036188,0.00057721,0.0,0 STARLINK-3738,1 52117U 22029AF  22257.25001157  .00057721  00000-0  36188-2 0  9990,2 52117  53.2197  31.3146 0001570  51.6436 287.1620 15.08804668 28698,6917.988,95.44,540.94,538.7669999999998,0.0
52117.0,STARLINK-3738,PAYLOAD,2022-09-14 14:00:01,15.08836556,0.0001876999999999,53.2174,29.8217,58.0273,292.3182,5.627e-05,6.07e-06,0.0,0 STARLINK-3738,1 52117U 22029AF  22257.58334491  .00000607  00000-0  56270-4 0  9993,2 52117  53.2174  29.8217 0001877  58.0273 292.3182 15.08836556  1305,6917.891,95.438,541.054,538.457,0.0
52117.0,STARLINK-3738,PAYLOAD,2022-09-14 22:00:00,15.08829912,0.0001696,53.2197,28.3237,41.9009,320.0688,0.00057457,8.866e-05,0.0,0 STARLINK-3738,1 52117U 22029AF  22257.91667824  .00008866  00000-0  57457-3 0  9991,2 52117  53.2197  28.3237 0001696  41.9009 320.0688 15.08829912  1301,6917.911,95.438,540.95,538.6030000000002,0.0
52117.0,STARLINK-3738,PAYLOAD,2022-09-15 14:00:01,15.08846857,0.0001758,53.2201,25.3311,47.6009,337.5592,-0.0017077,-0.00027369,0.0,0 STARLINK-3738,1 52117U 22029AF  22258.58334491 -.00027369  00000-0 -17077-2 0  9990,2 52117  53.2201  25.3311 0001758  47.6009 337.5592 15.08846857  1303,6917.859,95.437,540.941,538.508,0.0
52117.0,STARLINK-3738,PAYLOAD,2022-09-15 18:39:32,15.08832772,0.0001754,53.2202,24.4587,48.291,311.8232,1.8986e-05,1.4e-07,0.0,0 STARLINK-3738,1 52117U 22029AF  22258.77745992  .00000014  00000-0  18986-4 0  9991,2 52117  53.2202  24.4587 0001754  48.2910 311.8232 15.08832772 28938,6917.901999999999,95.438,540.981,538.554,0.0
52117.0,STARLINK-3738,PAYLOAD,2022-09-16 12:08:46,15.08838062,0.0001549,53.2199,21.1878,46.2616,313.8505,4.3773e-05,4.09e-06,0.0,0 STARLINK-3738,1 52117U 22029AF  22259.50609843  .00000409  00000-0  43773-4 0  9997,2 52117  53.2199  21.1878 0001549  46.2616 313.8505 15.08838062 29049,6917.886,95.438,540.823,538.68,0.0
52117.0,STARLINK-3738,PAYLOAD,2022-09-16 18:30:19,15.08833443,0.0001606,53.221,19.9989,52.0907,308.0231,2.7277e-05,1.46e-06,0.0,0 STARLINK-3738,1 52117U 22029AF  22259.77106425  .00000146  00000-0  27277-4 0  9993,2 52117  53.2210  19.9989 0001606  52.0907 308.0231 15.08833443 29087,6917.9,95.438,540.876,538.654,0.0
52117.0,STARLINK-3738,PAYLOAD,2022-09-16 20:05:43,15.08833921,0.0001543,53.2208,19.7012,51.5883,308.5247,2.6306e-05,1.31e-06,0.0,0 STARLINK-3738,1 52117U 22029AF  22259.83730458  .00000131  00000-0  26306-4 0  9995,2 52117  53.2208  19.7012 0001543  51.5883 308.5247 15.08833921 29090,6917.899,95.438,540.831,538.697,0.0
52117.0,STARLINK-3738,PAYLOAD,2022-09-17 11:59:35,15.08829089,0.0001735,53.2209,16.7284,41.1844,318.9279,-6.6448e-05,-1.345e-05,0.0,0 STARLINK-3738,1 52117U 22029AF  22260.49971607 -.00001345  00000-0 -66448-4 0  9993,2 52117  53.2209  16.7284 0001735  41.1844 318.9279 15.08829089 29195,6917.9140000000025,95.438,540.979,538.578,0.0
